OBJECT_NAME,OBJECT_ID,EPOCH,MEAN_MOTION,ECCENTRICITY,INCLINATION,RA_OF_ASC_NODE,ARG_OF_PERICENTER,MEAN_ANOMALY,EPHEMERIS_TYPE,CLASSIFICATION_TYPE,NORAD_CAT_ID,ELEMENT_SET_NO,REV_AT_EPOCH,BSTAR,MEAN_MOTION_DOT,MEAN_MOTION_DDOT
TIANMU-1 21,2023-208C,2026-06-08T13:51:41.457888,15.34924582,.0006659,97.4492,279.1051,358.9198,1.2029,0,U,58662,999,13624,.27298E-3,.9172E-4,0
TIANMU-1 22,2023-208D,2026-06-08T13:49:32.704608,15.30937882,.0004014,97.4487,275.7769,33.0850,327.0641,0,U,58663,999,13601,.23972E-3,.7089E-4,0
TIANMU-1 15,2024-004A,2026-06-08T12:20:18.494016,15.26934019,.0007556,97.4674,345.7036,31.4800,328.6889,0,U,58700,999,13445,.20606E-3,.5378E-4,0
TIANMU-1 16,2024-004B,2026-06-08T12:02:33.512064,15.26659330,.0006675,97.4621,344.9380,36.1314,324.0374,0,U,58701,999,13445,.20096E-3,.5199E-4,0
TIANMU-1 17,2024-004C,2026-06-08T13:15:59.376384,15.26660364,.0006334,97.4649,345.4706,41.7072,318.4649,0,U,58702,999,13445,.21565E-3,.5584E-4,0
TIANMU-1 18,2024-004D,2026-06-08T12:44:05.377920,15.26918196,.0004848,97.4666,345.6985,41.3528,318.8077,0,U,58703,999,13445,.21143E-3,.5516E-4,0
INSAT-3DS,2024-033A,2026-06-08T12:03:42.746976,1.00273110,.0001259,0.0147,153.9081,278.5964,87.3976,0,U,58990,999,4698,0,-.14E-5,0
METEOR-M2 4,2024-039A,2026-06-08T12:45:09.479808,14.22428716,.0006779,98.7013,118.9384,185.7437,174.3664,0,U,59051,999,11803,.31738E-4,.27E-6,0
GOES 19,2024-119A,2026-06-08T07:53:32.676288,1.00272633,.0000541,0.0337,147.9866,6.1333,145.7999,0,U,60133,999,687,0,-.233E-5,0
MTG-S1,2025-143A,2026-06-08T08:14:00.714048,1.00271628,.0001046,0.6111,336.9387,29.5831,10.2389,0,U,64723,999,333,0,-.16E-6,0
METOP-SGA1,2025-172A,2026-06-08T09:51:24.386688,14.21508407,.0000943,98.6647,219.2984,87.6994,272.4292,0,U,65159,999,4254,.40218E-4,.45E-6,0
FENGYUN 3H,2025-219A,2026-06-08T10:39:36.618048,14.19918986,.0001641,98.6766,100.3834,83.7634,276.3729,0,U,65815,999,3614,.52009E-4,.67E-6,0
