TIANMU-1 21             
1 58662U 23208C   26159.57756317  .00009172  00000+0  27298-3 0  9995
2 58662  97.4492 279.1051 0006659 358.9198   1.2029 15.34924582136241
TIANMU-1 22             
1 58663U 23208D   26159.57607297  .00007089  00000+0  23972-3 0  9998
2 58663  97.4487 275.7769 0004014  33.0850 327.0641 15.30937882136010
TIANMU-1 15             
1 58700U 24004A   26159.51410294  .00005378  00000+0  20606-3 0  9998
2 58700  97.4674 345.7036 0007556  31.4800 328.6889 15.26934019134457
TIANMU-1 16             
1 58701U 24004B   26159.50177676  .00005199  00000+0  20096-3 0  9996
2 58701  97.4621 344.9380 0006675  36.1314 324.0374 15.26659330134455
TIANMU-1 17             
1 58702U 24004C   26159.55277056  .00005584  00000+0  21565-3 0  9995
2 58702  97.4649 345.4706 0006334  41.7072 318.4649 15.26660364134450
TIANMU-1 18             
1 58703U 24004D   26159.53061780  .00005516  00000+0  21143-3 0  9996
2 58703  97.4666 345.6985 0004848  41.3528 318.8077 15.26918196134459
INSAT-3DS               
1 58990U 24033A   26159.50257809 -.00000140  00000+0  00000+0 0  9996
2 58990   0.0147 153.9081 0001259 278.5964  87.3976  1.00273110 46982
METEOR-M2 4             
1 59051U 24039A   26159.53135972  .00000027  00000+0  31738-4 0  9990
2 59051  98.7013 118.9384 0006779 185.7437 174.3664 14.22428716118039
GOES 19                 
1 60133U 24119A   26159.32885042 -.00000233  00000+0  00000+0 0  9992
2 60133   0.0337 147.9866 0000541   6.1333 145.7999  1.00272633  6874
MTG-S1                  
1 64723U 25143A   26159.34306382 -.00000016  00000+0  00000+0 0  9995
2 64723   0.6111 336.9387 0001046  29.5831  10.2389  1.00271628  3330
METOP-SGA1              
1 65159U 25172A   26159.41069892  .00000045  00000+0  40218-4 0  9992
2 65159  98.6647 219.2984 0000943  87.6994 272.4292 14.21508407 42547
FENGYUN 3H              
1 65815U 25219A   26159.44417382  .00000067  00000+0  52009-4 0  9992
2 65815  98.6766 100.3834 0001641  83.7634 276.3729 14.19918986 36147
